CCSDS_OMM_VERS,COMMENT,CREATION_DATE,ORIGINATOR,OBJECT_NAME,OBJECT_ID,CENTER_NAME,REF_FRAME,TIME_SYSTEM,MEAN_ELEMENT_THEORY,EPOCH,MEAN_MOTION,ECCENTRICITY,INCLINATION,RA_OF_ASC_NODE,ARG_OF_PERICENTER,MEAN_ANOMALY,EPHEMERIS_TYPE,CLASSIFICATION_TYPE,NORAD_CAT_ID,ELEMENT_SET_NO,REV_AT_EPOCH,BSTAR,MEAN_MOTION_DOT,MEAN_MOTION_DDOT,SEMIMAJOR_AXIS,PERIOD,APOAPSIS,PERIAPSIS,OBJECT_TYPE,RCS_SIZE,COUNTRY_CODE,LAUNCH_DATE,SITE,DECAY_DATE,FILE,GP_ID,TLE_LINE0,TLE_LINE1,TLE_LINE2,NORAD_KEY,JCAT,DeepCat,Satcat,Piece,Active,Type,Name,LDate,Parent,Owner,State,SDate,ExpandedStatus,DDate,ODate,Period,Perigee,PF,Apogee,AF,Inc,IF,OpOrbit,SATCAT_KEY
3.0,GENERATED VIA SPACE-TRACK.ORG API,2026-05-06T14:46:56,18 SPCS,EUTE 172B,2017-029B,EARTH,TEME,UTC,SGP4,2026-05-06T10:32:10.271328,1.00270393,1.66e-05,0.0169,193.4217,251.0286,109.9055,0,U,42741,999,3332,0.00000000000000,0.00000002,0.0000000000000,42165.122,1436.117,35787.687,35786.287,PAYLOAD,LARGE,EUTE,2017-06-01,FRGUI,,5177185,322298688,0 EUTE 172B,1 42741U 17029B   26126.43900777  .00000002  00000-0  00000+0 0  9992,2 42741   0.0169 193.4217 0000166 251.0286 109.9055  1.00270393 33325,42741,S42741,-,42741,2017-029B,A,P,EUTELSAT 172B,2017 Jun  1,S42743,EUTSA,F,2017 Jun  2 0026,In Earth orbit,-,2026 May  5 ,    1436.106 ,   35786, ,   35787, ,  0.02 , ,GEO/S,42741
3.0,GENERATED VIA SPACE-TRACK.ORG API,2026-05-06T14:46:56,18 SPCS,INTELSAT 18,2011-056A,EARTH,TEME,UTC,SGP4,2026-05-06T11:21:38.551104,1.00271747,0.0002233,0.017,271.9089,146.5693,156.2665,0,U,37834,999,5339,0.00000000000000,0.00000061,0.0000000000000,42164.743,1436.097,35796.023,35777.192,PAYLOAD,LARGE,ITSO,2011-10-05,TTMTR,,5177121,322296320,0 INTELSAT 18,1 37834U 11056A   26126.47336286  .00000061  00000-0  00000+0 0  9990,2 37834   0.0170 271.9089 0002233 146.5693 156.2665  1.00271747 53395,37834,S37834,-,37834,2011-056A,A,P      O,Intelsat IS-18,2011 Oct  5,S37835,SESINTU,US,2011 Oct  6 0334,In Earth orbit,-,2026 May  5 ,    1436.092 ,   35777, ,   35795, ,  0.01 , ,GEO/S,37834
3.0,GENERATED VIA SPACE-TRACK.ORG API,2026-05-06T14:46:56,18 SPCS,AZERSPACE 2/INTELSAT 38,2018-074A,EARTH,TEME,UTC,SGP4,2026-05-06T11:38:26.223936,1.00272668,0.0001594,0.0171,273.5829,136.5507,33.9466,0,U,43632,999,2802,0.00000000000000,0.00000144,0.0000000000000,42164.484,1436.084,35793.07,35779.628,PAYLOAD,LARGE,AZER,2018-09-25,FRGUI,,5177202,322298896,0 AZERSPACE 2/INTELSAT 38,1 43632U 18074A   26126.48502574  .00000144  00000-0  00000+0 0  9998,2 43632   0.0171 273.5829 0001594 136.5507  33.9466  1.00272668 28026,43632,S43632,-,43632,2018-074A,A,P      O,Azerspace-2,2018 Sep 25,S43634,AZER,AZ,2018 Sep 25 2320,In Earth orbit,-,2026 May  5 ,    1436.093 ,   35779, ,   35793, ,  0.02 , ,GEO/S,43632
3.0,GENERATED VIA SPACE-TRACK.ORG API,2026-05-06T14:46:56,18 SPCS,WGS F4 (USA 233),2012-003A,EARTH,TEME,UTC,SGP4,2026-05-06T13:11:51.751392,1.00272738,0.0001418,0.0172,262.9285,227.5716,20.2775,0,U,38070,999,4373,0.00000000000000,-0.00000207,0.0000000000000,42164.465,1436.083,35792.309,35780.351,PAYLOAD,LARGE,US,2012-01-20,AFETR,,5177124,322296859,0 WGS F4 (USA 233),1 38070U 12003A   26126.54990453 -.00000207  00000-0  00000+0 0  9999,2 38070   0.0172 262.9285 0001418 227.5716  20.2775  1.00272738 43738,38070,S38070,-,38070,2012-003A,A,P ------c,WGS SV-4,2012 Jan 20,S38071,SFSSC,US,2012 Jan 20 0118,In Earth orbit,-,2026 May  5 ,    1436.118 ,   35781, ,   35792, ,  0.01 , ,GEO/S,38070
3.0,GENERATED VIA SPACE-TRACK.ORG API,2026-05-06T14:46:56,18 SPCS,INTELSAT 16,2010-006A,EARTH,TEME,UTC,SGP4,2026-05-06T07:38:35.402784,1.00270947,0.0002659,0.0172,316.1796,121.9794,184.4724,0,U,36397,999,5923,0.00000000000000,-0.00000237,0.0000000000000,42164.967,1436.109,35798.044,35775.62,PAYLOAD,LARGE,ITSO,2010-02-12,TTMTR,,5177101,322296572,0 INTELSAT 16,1 36397U 10006A   26126.31846531 -.00000237  00000-0  00000+0 0  9995,2 36397   0.0172 316.1796 0002659 121.9794 184.4724  1.00270947 59237,36397,S36397,-,36397,2010-006A,A,P      O,Intelsat IS-16,2010 Feb 12,S36398,SESINTU,US,2010 Feb 12 1014,In Earth orbit,-,2026 May  5 ,    1436.104 ,   35775, ,   35797, ,  0.02 , ,GEO/S,36397
3.0,GENERATED VIA SPACE-TRACK.ORG API,2026-05-06T14:46:56,18 SPCS,YAHSAT 1A,2011-016B,EARTH,TEME,UTC,SGP4,2026-05-06T11:40:41.007936,1.00269262,0.0003537,0.0174,266.6786,148.2426,37.0959,0,U,37393,999,4199,0.00000000000000,0.00000109,0.0000000000000,42165.439,1436.133,35802.218,35772.39,PAYLOAD,LARGE,UAE,2011-04-22,FRGUI,,5177112,322296714,0 YAHSAT 1A,1 37393U 11016B   26126.48658574  .00000109  00000-0  00000+0 0  9997,2 37393   0.0174 266.6786 0003537 148.2426  37.0959  1.00269262 41999,37393,S37393,-,37393,2011-016B,A,P,Al Yah 1,2011 Apr 22,S37395,SP42,UAE,2011 Apr 22 2204,In Earth orbit,-,2026 May  4 ,    1436.132 ,   35773, ,   35801, ,  0.01 , ,GEO/S,37393
3.0,GENERATED VIA SPACE-TRACK.ORG API,2026-05-06T14:46:56,18 SPCS,ECHOSTAR 17,2012-035A,EARTH,TEME,UTC,SGP4,2026-05-06T10:55:07.876128,1.00272618,0.0001819,0.0175,267.3093,138.707,234.9917,0,U,38551,999,5064,0.00000000000000,-0.00000068,0.0000000000000,42164.498,1436.085,35794.033,35778.694,PAYLOAD,LARGE,US,2012-07-05,FRGUI,,5177130,322296434,0 ECHOSTAR 17,1 38551U 12035A   26126.45495227 -.00000068  00000-0  00000+0 0  9992,2 38551   0.0175 267.3093 0001819 138.7070 234.9917  1.00272618 50649,38551,S38551,-,38551,2012-035A,A,P,Echostar 17,2012 Jul  5,S38554,EHNS,US,2012 Jul  5 2203,In Earth orbit,-,2026 May  5 ,    1436.122 ,   35778, ,   35795, ,  0.01 , ,GEO/S,38551
3.0,GENERATED VIA SPACE-TRACK.ORG API,2026-05-06T14:46:56,18 SPCS,WGS 10 (USA 291),2019-014A,EARTH,TEME,UTC,SGP4,2026-05-06T11:42:55.793664,1.00270665,5.93e-05,0.0176,305.0729,73.4047,81.8938,0,U,44071,999,2620,0.00000000000000,0.00000055,0.0000000000000,42165.046,1436.113,35789.411,35784.411,PAYLOAD,LARGE,US,2019-03-16,AFETR,,5177212,322299521,0 WGS 10 (USA 291),1 44071U 19014A   26126.48814576  .00000055  00000-0  00000+0 0  9990,2 44071   0.0176 305.0729 0000593  73.4047  81.8938  1.00270665 26204,44071,S44071,-,44071,2019-014A,A,P ------,WGS SV-10,2019 Mar 16,A09279,SFSSC,US,2019 Mar 16 0102,In Earth orbit,-,2026 May  5 ,    1436.078 ,   35783, ,   35788, ,  0.02 , ,GEO/S,44071
3.0,GENERATED VIA SPACE-TRACK.ORG API,2026-05-06T14:46:56,18 SPCS,INTELSAT 35E,2017-041A,EARTH,TEME,UTC,SGP4,2026-05-06T11:15:50.891328,1.0027155,0.0002126,0.0176,273.1739,132.0345,313.5946,0,U,42818,999,3239,0.00000000000000,-0.00000230,0.0000000000000,42164.798,1436.1,35795.627,35777.699,PAYLOAD,LARGE,ITSO,2017-07-05,AFETR,,5177186,322298700,0 INTELSAT 35E,1 42818U 17041A   26126.46933902 -.00000230  00000-0  00000+0 0  9994,2 42818   0.0176 273.1739 0002126 132.0345 313.5946  1.00271550 32399,42818,S42818,-,42818,2017-041A,A,P      O,Intelsat IS-35e,2017 Jul  5,S42819,SESINTU,US,2017 Jul  6 0010,In Earth orbit,-,2026 May  5 ,    1436.096 ,   35777, ,   35795, ,  0.02 , ,GEO/S,42818
3.0,GENERATED VIA SPACE-TRACK.ORG API,2026-05-06T14:46:56,18 SPCS,JCSAT 15,2016-082A,EARTH,TEME,UTC,SGP4,2026-05-06T11:57:09.429120,1.00271549,8.41e-05,0.0177,273.4397,153.8487,86.4325,0,U,41903,999,3434,0.00000000000000,-0.00000343,0.0000000000000,42164.798,1436.1,35790.209,35783.117,PAYLOAD,LARGE,JPN,2016-12-21,FRGUI,,5177352,322298092,0 JCSAT 15,1 41903U 16082A   26126.49802580 -.00000343  00000-0  00000+0 0  9997,2 41903   0.0177 273.4397 0000841 153.8487  86.4325  1.00271549 34349,41903,S41903,-,41903,2016-082A,A,P,JCSAT 15,2016 Dec 21,S41905,SKPJ,J,2016 Dec 21 2113,In Earth orbit,-,2026 May  5 ,    1436.125 ,   35783, ,   35790, ,  0.01 , ,GEO/S,41903
3.0,GENERATED VIA SPACE-TRACK.ORG API,2026-05-06T14:46:56,18 SPCS,COSMOS 2520,2017-046A,EARTH,TEME,UTC,SGP4,2026-05-06T11:38:26.223936,1.00273019,3.35e-05,0.0178,122.1012,15.6237,306.242,0,U,42907,999,3197,0.00000000000000,0.00000145,0.0000000000000,42164.386,1436.079,35787.664,35784.839,PAYLOAD,,CIS,2017-08-16,TTMTR,,5177187,322298217,0 COSMOS 2520,1 42907U 17046A   26126.48502574  .00000145  00000-0  00000+0 0  9991,2 42907   0.0178 122.1012 0000335  15.6237 306.2420  1.00273019 31974,42907,S42907,-,42907,2017-046A,A,P,Kosmos-2520,2017 Aug 16,S42909,VVKOV/VOENT,RU,2017 Aug 17 0708?,In Earth orbit,-,2026 May  5 ,    1436.093 ,   35784, ,   35788, ,  0.02 , ,GEO/S,42907
3.0,GENERATED VIA SPACE-TRACK.ORG API,2026-05-06T14:46:56,18 SPCS,ECHOSTAR 23,2017-014A,EARTH,TEME,UTC,SGP4,2026-05-06T10:54:22.948128,1.00271652,0.0001947,0.0179,265.4173,133.4586,239.1462,0,U,42070,999,3350,0.00000000000000,-0.00000049,0.0000000000000,42164.769,1436.099,35794.844,35778.425,PAYLOAD,LARGE,US,2017-03-16,AFETR,,5177179,322298609,0 ECHOSTAR 23,1 42070U 17014A   26126.45443227 -.00000049  00000-0  00000+0 0  9997,2 42070   0.0179 265.4173 0001947 133.4586 239.1462  1.00271652 33503,42070,S42070,-,42070,2017-014A,P,P,Echostar 23,2017 Mar 16,S42071,DISHE,US,2017 Mar 16 0634,In Earth orbit,-,2026 May  5 ,    1436.093 ,   35778, ,   35794, ,  0.02 , ,GEO/S,42070
3.0,GENERATED VIA SPACE-TRACK.ORG API,2026-05-06T14:46:56,18 SPCS,GSAT 10,2012-051B,EARTH,TEME,UTC,SGP4,2026-05-06T10:06:42.713280,1.00270649,0.0007616,0.0179,274.5663,170.0886,14.239,0,U,38779,999,4968,0.00000000000000,-0.00000156,0.0000000000000,42165.05,1436.113,35819.028,35754.803,PAYLOAD,LARGE,IND,2012-09-28,FRGUI,,5177132,322296963,0 GSAT 10,1 38779U 12051B   26126.42132770 -.00000156  00000-0  00000+0 0  9998,2 38779   0.0179 274.5663 0007616 170.0886  14.2390  1.00270649 49681,38779,S38779,-,38779,2012-051B,A,P,GSAT-10,2012 Sep 28,S38780,ISRO,IN,2012 Sep 28 2148,In Earth orbit,-,2026 May  5 ,    1436.111 ,   35754, ,   35818, ,  0.02 , ,GEO/S,38779
